*******************************************************************************
JPL/HORIZONS                490 Veritas (A902 RE)          2023-Sep-04 11:06:38
Rec #:     490 (+COV) Soln.date: 2023-Aug-23_22:05:49   # obs: 7855 (1902-2023)
 
IAU76/J2000 helio. ecliptic osc. elements (au, days, deg., period=Julian yrs):
 
  EPOCH=  2457109.5 ! 2015-Mar-28.00 (TDB)         Residual RMS= .30637
   EC= .09476468420072248  QR= 2.871740777575179   TP= 2457422.9865341228
   OM= 178.3365481475297   W=  194.5382914302891   IN= 9.27986486957869
   A= 3.172369357949292    MA= 305.3176280394368   ADIST= 3.472997938323406
   PER= 5.65046            N= .174432921           ANGMOM= .030501026
   DAN= 3.4614             DDN= 2.87972            L= 12.6924816
   B= -2.3199589           MOID= 1.87202001        TP= 2016-Feb-04.4865341228
 
Asteroid physical parameters (km, seconds, rotational period in hours):
   GM= n.a.                RAD= 59.4015            ROTPER= 7.93
   H= 8.72                 G= .150                 B-V= .750
                           ALBEDO= .059            STYP= Ch

ASTEROID comments: 
1: soln ref.= JPL#60, OCC=0
2: source=ORB
*******************************************************************************


*******************************************************************************
Ephemeris / API_USER Mon Sep  4 11:06:39 2023 Pasadena, USA      / Horizons
*******************************************************************************
Target body name: 490 Veritas (A902 RE)           {source: JPL#60}
Center body name: Solar System Barycenter (0)     {source: DE441}
Center-site name: BODY CENTER
*******************************************************************************
Start time      : A.D. 2023-Aug-12 00:00:00.0000 TDB
Stop  time      : A.D. 2023-Aug-13 00:00:00.0000 TDB
Step-size       : 2880 minutes
*******************************************************************************
Center geodetic : 0.0, 0.0, 0.0                   {E-lon(deg),Lat(deg),Alt(km)}
Center cylindric: 0.0, 0.0, 0.0                   {E-lon(deg),Dxy(km),Dz(km)}
Center radii    : (undefined)
Small perturbers: Yes                             {source: SB441-N16}
Output units    : KM-S
Calendar mode   : Mixed Julian/Gregorian
Output type     : GEOMETRIC cartesian states
Output format   : 2 (position and velocity)
Reference frame : Ecliptic of J2000.0
*******************************************************************************
Initial IAU76/J2000 heliocentric ecliptic osculating elements (au, days, deg.):
  EPOCH=  2457109.5 ! 2015-Mar-28.00 (TDB)         Residual RMS= .30637        
   EC= .09476468420072248  QR= 2.871740777575179   TP= 2457422.9865341228      
   OM= 178.3365481475297   W=  194.5382914302891   IN= 9.27986486957869        
  Equivalent ICRF heliocentric cartesian coordinates (au, au/d):
   X= 1.889632812294607E+00  Y=-2.280902605629070E+00  Z=-5.847243963607880E-01
  VX= 7.361166880668558E-03 VY= 6.765038982411506E-03 VZ= 1.671665363011285E-03
Asteroid physical parameters (km, seconds, rotational period in hours):        
   GM= n.a.                RAD= 59.4015            ROTPER= 7.93                
   H= 8.72                 G= .150                 B-V= .750                   
                           ALBEDO= .059            STYP= Ch                    
*******************************************************************************
JDTDB
   X     Y     Z
   VX    VY    VZ
*******************************************************************************
$$SOE
2460168.500000000 = A.D. 2023-Aug-12 00:00:00.0000 TDB 
 X =-3.829141611483933E+08 Y = 3.165759635944210E+08 Z =-4.965140373694772E+07
 VX=-1.109616723386926E+01 VY=-1.123795015986518E+01 VZ= 1.897838733326711E+00
$$EOE
*******************************************************************************
 
TIME

  Barycentric Dynamical Time ("TDB" or T_eph) output was requested. This
continuous coordinate time is equivalent to the relativistic proper time
of a clock at rest in a reference frame co-moving with the solar system
barycenter but outside the system's gravity well. It is the independent
variable in the solar system relativistic equations of motion.

  TDB runs at a uniform rate of one SI second per second and is independent
of irregularities in Earth's rotation.
 
CALENDAR SYSTEM

  Mixed calendar mode was active such that calendar dates after AD 1582-Oct-15
(if any) are in the modern Gregorian system. Dates prior to 1582-Oct-5 (if any)
are in the Julian calendar system, which is automatically extended for dates
prior to its adoption on 45-Jan-1 BC.  The Julian calendar is useful for
matching historical dates. The Gregorian calendar more accurately corresponds
to the Earth's orbital motion and seasons. A "Gregorian-only" calendar mode is
available if such physical events are the primary interest.

REFERENCE FRAME AND COORDINATES

  Ecliptic at the standard reference epoch

    Reference epoch: J2000.0
    X-Y plane: adopted Earth orbital plane at the reference epoch
               Note: IAU76 obliquity of 84381.448 arcseconds wrt ICRF X-Y plane
    X-axis   : ICRF
    Z-axis   : perpendicular to the X-Y plane in the directional (+ or -) sense
               of Earth's north pole at the reference epoch.

  Symbol meaning:

    JDTDB    Julian Day Number, Barycentric Dynamical Time
      X      X-component of position vector (km)
      Y      Y-component of position vector (km)
      Z      Z-component of position vector (km)
      VX     X-component of velocity vector (km/sec)                           
      VY     Y-component of velocity vector (km/sec)                           
      VZ     Z-component of velocity vector (km/sec)                           

ABERRATIONS AND CORRECTIONS

 Geometric state vectors have NO corrections or aberrations applied.

Computations by ...

    Solar System Dynamics Group, Horizons On-Line Ephemeris System
    4800 Oak Grove Drive, Jet Propulsion Laboratory
    Pasadena, CA  91109   USA

    General site: https://ssd.jpl.nasa.gov/
    Mailing list: https://ssd.jpl.nasa.gov/email_list.html
    System news : https://ssd.jpl.nasa.gov/horizons/news.html
    User Guide  : https://ssd.jpl.nasa.gov/horizons/manual.html
    Connect     : browser        https://ssd.jpl.nasa.gov/horizons/app.html#/x
                  API            https://ssd-api.jpl.nasa.gov/doc/horizons.html
                  command-line   telnet ssd.jpl.nasa.gov 6775
                  e-mail/batch   https://ssd.jpl.nasa.gov/ftp/ssd/hrzn_batch.txt
                  scripts        https://ssd.jpl.nasa.gov/ftp/ssd/SCRIPTS
    Author      : Jon.D.Giorgini@jpl.nasa.gov
*******************************************************************************
